IRIDIUM 64 [+]          
1 25287U 98021C   17001.40988197  .00000203  00000-0  65572-4 0  9993
2 25287  86.3973 293.6606 0002233  81.4164 278.7285 14.34219170981096
IRIDIUM 65 [+]          
1 25288U 98021D   17001.34636929  .00000189  00000-0  60595-4 0  9993
2 25288  86.3972 293.5934 0002105  88.7861 271.3576 14.34219881981104
IRIDIUM 66 [+]          
1 25289U 98021E   17001.44941257  .00000030  00000-0  37555-5 0  9994
2 25289  86.3971 293.4552 0002040  86.0401  53.0935 14.34219512981114
IRIDIUM 67 [+]          
1 25290U 98021F   17001.28928668  .00000196  00000-0  62867-4 0  9995
2 25290  86.3973 293.6560 0002081  84.4263 275.7170 14.34219841981100
IRIDIUM 68 [+]          
1 25291U 98021G   17002.41191875  .00000195  00000-0  62599-4 0  9995
2 25291  86.3974 293.3025 0002133  84.5263 275.6176 14.34220102981235
IRIDIUM 69 [-]          
1 25319U 98026A   17001.46177939  .00000136  00000-0  38055-4 0  9995
2 25319  86.4001 315.8588 0004066  94.8408 265.3254 14.38643893979065
IRIDIUM 71 [-]          
1 25320U 98026B   17001.43037129  .00000106  00000-0  27776-4 0  9995
2 25320  86.3986 311.8414 0003074 128.5890 231.5584 14.39054665979481
IRIDIUM 70 [+]          
1 25342U 98032A   17001.41754174  .00000196  00000-0  62804-4 0  9990
2 25342  86.3978 293.9521 0002000  87.6727  50.6467 14.34219939975193
IRIDIUM 72 [+]          
1 25343U 98032B   17001.37808125  .00000190  00000-0  60699-4 0  9996
2 25343  86.3972 293.5911 0002078  85.5438 274.5995 14.34219938975190
IRIDIUM 73 [-]          
1 25344U 98032C   17002.40766152  .00000142  00000-0  32112-4 0  9991
2 25344  86.4440 272.9792 0001457  90.1965 269.9406 14.49000416983545
IRIDIUM 74 [S]          
1 25345U 98032D   17001.33405295  .00000196  00000-0  53286-4 0  9995
2 25345  86.4488 293.9827 0005142 208.9653 266.5295 14.42435031978684
IRIDIUM 75 [+]          
1 25346U 98032E   17001.41125270  .00000030  00000-0  37346-5 0  9994
2 25346  86.3976 293.8239 0002093  84.2627  54.3427 14.34219178975769
IRIDIUM 3 [+]           
1 25431U 98048A   17001.53468087  .00000105  00000-0  30269-4 0  9994
2 25431  86.3966 325.3787 0002106  90.8532  45.2350 14.34216155961722
IRIDIUM 76 [+]          
1 25432U 98048B   17002.53045942  .00000110  00000-0  32187-4 0  9994
2 25432  86.3965 324.7218 0001999  86.5859  49.4251 14.34215838961854
IRIDIUM 82 [+]          
1 25467U 98051A   17001.49676010  .00000256  00000-0  84247-4 0  9991
2 25467  86.3971  91.8615 0002475  97.4087 262.7390 14.34225609962724
IRIDIUM 81 [+]          
1 25468U 98051B   17002.32762924  .00000210  00000-0  67768-4 0  9994
2 25468  86.3973  91.1370 0002112  94.3599 265.7838 14.34222999959062
IRIDIUM 80 [+]          
1 25469U 98051C   17001.63436459  .00000221  00000-0  71866-4 0  9995
2 25469  86.3979  91.7065 0002109  92.8762  27.9601 14.34221956958963
IRIDIUM 77 [+]          
1 25471U 98051E   17001.35110059  .00000223  00000-0  72545-4 0  9999
2 25471  86.3969  91.4085 0002059  98.7117 328.2709 14.34221950964122
IRIDIUM 2 [-]           
1 25527U 98066A   17001.48625130  .00001700  00000-0  86457-4 0  9990
2 25527  85.5319 130.6214 0008946 357.3832   2.7359 15.16052383992616
IRIDIUM 86 [+]          
1 25528U 98066B   17001.57572806  .00000068  00000-0  17163-4 0  9996
2 25528  86.3951  59.4715 0002164 100.7584 259.3856 14.34216706955488
IRIDIUM 84 [+]          
1 25530U 98066D   17001.60744866  .00000141  00000-0  43131-4 0  9996
2 25530  86.3951  59.6206 0002120  95.6764 264.4674 14.34216497953123
IRIDIUM 83 [+]          
1 25531U 98066E   17001.29032194  .00000170  00000-0  53589-4 0  9996
2 25531  86.3956  59.8719 0002179  94.2094 265.9350 14.34217175950437
IRIDIUM 20 [+]          
1 25577U 98074A   17001.41952958  .00000112  00000-0  32886-4 0  9991
2 25577  86.3963 325.1098 0002151  87.9397 272.2045 14.34216462944533
IRIDIUM 11 [+]          
1 25578U 98074B   17002.43099597  .00000023  00000-0  97191-6 0  9999
2 25578  86.3961 324.8903 0002272  87.7361  25.9921 14.34216141953648
IRIDIUM 14 [+]          
1 25777U 99032A   17001.40344815  .00000203  00000-0  65511-4 0  9996
2 25777  86.3974 293.6599 0002058  89.2337 270.9095 14.34221680930776
IRIDIUM 21 [+]          
1 25778U 99032B   17002.34849389  .00000185  00000-0  58951-4 0  9996
2 25778  86.3975 293.2861 0001983  81.1954 278.9466 14.34220281924340
IRIDIUM 91 [+]          
1 27372U 02005A   17002.55029833  .00000010  00000-0 -34162-5 0  9996
2 27372  86.3350 356.9579 0002228  99.3830  23.3344 14.34213660787885
IRIDIUM 90 [S]          
1 27373U 02005B   17001.55095137  .00000195  00000-0  52370-4 0  9999
2 27373  86.4465  59.7409 0002132  98.6101 261.5341 14.42954798787326
IRIDIUM 94 [+]          
1 27374U 02005C   17002.45061134  .00000123  00000-0  36947-4 0  9993
2 27374  86.3965 325.0075 0001460  98.8295  18.0522 14.34217214792191
IRIDIUM 95 [+]          
1 27375U 02005D   17001.51805277 -.00000045  00000-0 -23311-4 0  9990
2 27375  86.3719 357.2545 0001954  86.8077 273.3343 14.34214011787026
IRIDIUM 96 [+]          
1 27376U 02005E   17001.56586869 -.00000016  00000-0 -12669-4 0  9991
2 27376  86.3979  28.8185 0001638  50.3861 309.7480 14.34218646792235
IRIDIUM 97 [+]          
1 27450U 02031A   17001.60392499  .00000012  00000-0 -27319-5 0  9996
2 27450  86.3947  28.5392 0002324  88.8000 271.3462 14.34218412766353
IRIDIUM 98 [+]          
1 27451U 02031B   17001.61821726  .00000232  00000-0  75728-4 0  9997
2 27451  86.3970  91.8702 0002205  94.7480  41.3562 14.34224015767425
